#dP2020  4 24  0  0  0.00000000      96 __u+U ITR00 FIT  IAC
## 2102 432000.00000000   900.00000000 58963 0.0000000000000
+  117   C06C07C08C09C10C11C12C13C14C16C19C20C21C22C23C24C25
+        C26C27C28C29C30C32C33C34C35C36C37C38C39C40C43C44C45
+        C46E01E02E03E04E05E07E08E09E11E12E13E14E15E18E19E21
+        E24E25E26E27E30E31E33E36G01G02G03G04G05G06G07G08G09
+        G10G11G12G13G14G15G16G17G18G19G20G21G22G23G24G25G26
+        G27G28G29G30G31G32J01J02J03R01R02R03R04R05R07R08R09
+        R11R12R13R14R15R16R17R18R19R20R21R22R23R24R26  0  0
++         9  8  8  7  7 10 12  8  8  7  6  7  7  8  7  8  9
++         8  7  8  6  8  6  7  6  6  8  6 12 13 12  9  9 11
++         6  7  6  6  6  6  7  6  6  6  5  7  7  6  8  7  7
++         6  6  6  7  5  6  6  7  6  7  5  6  6  5  4  6  5
++         5  6  6  6  7  7  5  6  6  6  5  6  5  6  7  5  5
++         6  5  7  7  7  7 11 10 10  6  7  7  6  7  5  6  6
++         7  8  8  7  7  7  6  7  7  8  7  7  6  6  7  0  0
%c M  cc GPS ccc cccc cccc cccc cccc ccccc ccccc ccccc ccccc
%c cc cc ccc ccc cccc cccc cccc cccc ccccc ccccc ccccc ccccc
%f  0.0000000  0.000000000  0.00000000000  0.000000000000000
%f  0.0000000  0.000000000  0.00000000000  0.000000000000000
%i    0    0    0    0      0      0      0      0         0
%i    0    0    0    0      0      0      0      0         0
/* INFORMATION & ANALYSIS CENTER (IAC)      ULTRA-RAPID DATA
/* S/V CLOCKS ARE ALIGNED TO GNSS TIME                      
/* G:C1WC2W R:C1PC2P E:C1XC5X C:C2IC6I J:C1CC2S             
/* PCV:IGS14_2101 OL/AL:FES2004  NONE     YN ORB:CoN CLK:CoN
*  2020 04 24 22  0  0.00000000
PC06 -19986.946577  21794.559263  30288.977718    382.353195
PC07 -20208.196619  37233.176800   2654.577001    837.264583
PC08  -5919.815074  26799.370697 -31808.183608   -218.200279
PC09  -2144.887594  24555.538021  34468.542299    495.461066
PC10  -9239.926806  39857.849390 -10893.293359   -890.046380
PC11  18235.247381  -8077.312879  19556.688384   -323.880475
PC12  27175.550190   4542.980512   4395.485877    357.409927
PC13   5461.143426  35392.955667 -21965.795971    400.143668
PC14  20579.773894 -18691.448814   2056.280734    333.396822
PC16 -16207.599332  22405.288945  31844.326342   -667.426243
PC19 -15155.505758  22352.651388   7101.198405    392.469300
PC20 -22616.072519  12937.553226 -10014.320201   -898.040635
PC21  16815.685059   4635.122884  21802.587096   -323.305842
PC22   1202.559798  18991.385907  20433.965547   -825.047460
PC23  -7684.616820 -26802.089681   1120.599867   -898.525926
PC24  15412.468414  -4945.309858 -22741.330772   -845.292961
PC25   4612.346683 -23003.334142 -15128.066165   -594.458698
PC26  16701.882423  14298.809748 -17173.731179    656.365924
PC27 -25315.065880 -10712.359292   4721.782994    318.687057
PC28 -10891.499193 -17001.766622  19266.113958    309.721151
PC29  -9317.400721  13702.339918 -22459.317783    219.507504
PC30 -24926.661201   2545.487258 -12261.272622    307.100452
PC32 -16889.994303  -4443.317301 -21746.142577   -909.215391
PC33  15099.278971 -22387.532407  -6984.470874   -857.877066
PC34  24758.537337  -2777.053616  12595.311298   -661.665032
PC35  11314.340954  16691.280166 -19308.112236   -875.806908
PC36  -5314.172293  22732.713856  15314.531921   -823.982865
PC37 -16239.278236 -15330.430610  16755.603558   -843.213010
PC38  -3402.503881  31210.432494 -28099.469279     74.220167
PC39 -12796.087786  23717.337393  32424.559849     14.569626
PC40 -15603.293322  37924.347632 -10172.807132 999999.999999
PC43   9749.438346 -13625.541961  22317.071274   -164.796595
PC44  25596.420909  10040.855570  -4891.852068   -188.422986
PC45   7747.706543  26778.825961  -1081.471650    116.627690
PC46 -15147.853900   5418.078262  22806.617234    868.693198
PE01 -16605.359823  11936.189267  21395.038928   -842.867432
PE02  16598.583717 -12035.176169 -21360.069233    128.765161
PE03  27820.466016 -10087.324510     34.449367   -291.531026
PE04 -15731.863745  18504.540903  16930.806561   -512.232014
PE05  23726.210664   4339.021897  17164.273807   -385.804571
PE07  -5815.440105 -16109.991726 -24129.601403   -372.742989
PE08  15450.081102 -18535.702233 -17126.924815   6187.618241
PE09   5947.286242  15919.081670  24245.948552   6082.315191
PE11  14339.846771  22602.016287 -12666.953965   2456.004338
PE12  -4870.189163  16528.936985 -24067.607169   5837.770893
PE13 -14225.938586 -22509.245078  12921.194510    400.328393
PE14  15123.648635 -11805.670787  14138.303734   -989.892510
PE15   4594.556580 -16591.593860  24085.367522    869.323741
PE18 -12109.545500  19076.143905 -23262.359468  -1088.574494
PE19 -28195.139939   8774.482989  -2030.234048  -1095.139686
PE21 -14333.836045 -10186.863230  23803.749992   -595.334018
PE24   3433.218987  26769.510492 -12149.464931   5489.985483
PE25  14292.277469  10320.756126 -23777.213515   -509.574329
PE26 -24698.200116 -15094.583525  -6175.204565   3264.402866
PE27  -3651.306376 -26679.689410  12293.702261    233.881010
PE30   9459.422159 -27255.120478  -6662.511348   3959.622617
PE31  -9128.067773  27425.190060   6387.177374   -472.377873
PE33 -20715.135481    934.655124 -21110.262952   -468.032931
PE36  24716.841416  15215.573265   5847.770072    568.655838
PG01  19226.572553  10498.938624  15039.145999   -366.114101
PG02 -12959.162848 -22696.256664   5538.984813   -445.060821
PG03  16520.208846  -1304.195427  20675.404017   -155.533422
PG04  26457.556450    574.048185   2460.361787    -80.640099
PG05  -5702.317671 -18745.041737 -17974.223457    -11.456576
PG06  -4351.848868 -22438.605917  13543.945034 999999.999999
PG07  13199.067797  -7640.749090 -21455.385978   -266.205653
PG08  22035.890439   7102.061923 -13227.456184    -31.759776
PG09  23994.161122  -8022.104739  -8168.409789   -204.464350
PG10 -11302.643919  23893.439398    128.069630   -320.721112
PG11  23340.548005  12257.592217    771.087732   -295.796879
PG12 -15722.627307  -1110.107411  21113.300708    125.455592
PG13 -15079.602338 -12998.753459 -17742.984205      4.796958
PG14   -153.615711  15379.014454  21998.160351    -17.399710
PG15 -23052.900620  -5464.661612 -12687.776007   -235.704029
PG16   4533.704331  17746.743681 -19280.762872   -150.471773
PG17  10965.142539 -13718.942397  20332.356130    254.196827
PG18 -14541.134769   5191.522505 -21626.825766    167.954166
PG19   2490.465221 -14496.054773  21817.195753   -167.594101
PG20 -15003.743817  18577.191935 -11477.130087    527.781277
PG21 -11912.011272   9141.105387 -21127.571825     -9.865325
PG22  13801.636040   8415.224716  21304.241778   -784.085095
PG23  25852.902465  -5496.776480  -4009.411481   -119.471997
PG24 -20527.114518 -10962.241563  12931.608835    -12.170146
PG25 -17674.084888  10337.125960  16527.860700     -0.871916
PG26  -2483.514157  24214.330175 -10390.496317    193.931295
PG27  12562.115971  12540.478788 -20002.093269   -275.992220
PG28  12158.895538 -23616.994370   2560.933548    722.775306
PG29 -25584.548545   4097.543863  -5926.430186    -88.956885
PG30   4961.159142 -17928.866245 -18844.346562   -205.776113
PG31   4616.043743  22906.864936  12142.052787    -38.172731
PG32  -9392.159540  14875.642960  19935.028826    266.855347
PJ01 -28350.910871  31255.076957   5749.815818   -316.841277
PJ02 -26549.700948  26458.481966  24037.325775     -2.543460
PJ03 -31762.492965  16046.244072 -17989.193451     -2.305045
PR01  16586.147932   -292.736326  19377.865921     60.532733
PR02  21485.545176 -13736.129178   1403.392237    423.458696
PR03  11808.053320 -16799.856849 -15117.674699     13.880275
PR04  -4417.343258 -10071.140350 -22983.680602     46.783310
PR05 -18122.115339   2228.173724 -17786.985076     49.263910
PR07 -11221.841643  16704.820722  15690.535476    -35.814860
PR08   4507.366226  10194.783725  23001.191089    -51.833958
PR09  -7912.461489  15524.658355  18669.582463    129.074985
PR11   6959.356075  22125.207140 -10660.388440    -21.315822
PR12  10922.060877   7671.463446 -21710.604893    125.345316
PR13   8842.115363 -11927.299054 -20761.852839    -37.838191
PR14   1686.846530 -24340.089656  -7413.339830     50.518490
PR15  -6451.184205 -22588.059159   9959.964379    106.388378
PR16 -11270.136486  -7027.874847  21775.552699     -3.026610
PR17   1129.391278 -11080.632254  22958.348719    319.844272
PR18 -15021.943410 -14625.804556  14497.317764     33.156617
PR19 -22888.927288 -11169.437528  -1381.304472    -90.249414
PR20 -17384.346521    309.740858 -18635.138249   -409.989354
PR21   -213.063379  11366.856058 -22832.454928   -120.184635
PR22  17061.725856  14577.245684 -12244.502893      1.889323
PR23  23057.399419   7380.083013   8041.071041    301.321909
PR24  17089.051637  -1223.090045  18912.082008     -4.391370
PR26 -20190.457728  -2248.441891 -15428.889143   -397.868030
EOF
